ONEWEB-0533             
1 55141U 23004B   24033.40394128  .00000113  00000+0  27870-3 0  9999
2 55141  87.9038 162.8931 0001756 111.4688 248.6628 13.12442378 54494
ONEWEB-0541             
1 55142U 23004C   24033.52049160  .00000179  00000+0  46861-3 0  9999
2 55142  87.8984 193.1218 0001379  99.9928 260.1355 13.11413628 52485
ONEWEB-0543             
1 55143U 23004D   24033.33749369  .00000105  00000+0  23353-3 0  9997
2 55143  87.9237 147.8605 0002073 104.8679 255.2683 13.18692483 55583
ONEWEB-0544             
1 55144U 23004E   24033.33115894  .00000076  00000+0  16033-3 0  9992
2 55144  87.9240 147.8451 0001710  99.3976 260.7349 13.18686772 55586
ONEWEB-0560             
1 55145U 23004F   24033.32485283  .00004071  00000+0  10291-1 0  9991
2 55145  87.9281 147.7950 0002001 100.4875 259.6482 13.18668303 55597
ONEWEB-0565             
1 55146U 23004G   24033.31850956  .00000102  00000+0  22641-3 0  9999
2 55146  87.9244 147.8757 0000970  78.8122 281.3119 13.18686938 55581
ONEWEB-0567             
1 55147U 23004H   24033.38807748  .00000029  00000+0  41297-4 0  9995
2 55147  87.9227 147.8118 0001926  88.4310 271.7043 13.18686980 55599
ONEWEB-0569             
1 55148U 23004J   24033.58334491  .00000013  00000+0  00000+0 0  9993
2 55148  87.9205 132.5020 0001965  62.4332  48.1369 13.19750700  5357
